[{"OBJECT_NAME":"METOP-C","OBJECT_ID":"2018-087A","EPOCH":"2026-04-05T05:12:12.892896","MEAN_MOTION":14.21506518,"ECCENTRICITY":0.00017581,"INCLINATION":98.6711,"RA_OF_ASC_NODE":156.1323,"ARG_OF_PERICENTER":63.996,"MEAN_ANOMALY":296.1398,"EPHEMERIS_TYPE":0,"CLASSIFICATION_TYPE":"U","NORAD_CAT_ID":43689,"ELEMENT_SET_NO":999,"REV_AT_EPOCH":38446,"BSTAR":0.00010476683,"MEAN_MOTION_DOT":1.86e-6,"MEAN_MOTION_DDOT":0},{"OBJECT_NAME":"GEO-KOMPSAT-2A","OBJECT_ID":"2018-100A","EPOCH":"2026-04-04T23:39:54.277632","MEAN_MOTION":1.00273311,"ECCENTRICITY":0.00019577,"INCLINATION":0.0527,"RA_OF_ASC_NODE":37.7483,"ARG_OF_PERICENTER":23.3348,"MEAN_ANOMALY":255.4434,"EPHEMERIS_TYPE":0,"CLASSIFICATION_TYPE":"U","NORAD_CAT_ID":43823,"ELEMENT_SET_NO":999,"REV_AT_EPOCH":2689,"BSTAR":0,"MEAN_MOTION_DOT":-3.43e-6,"MEAN_MOTION_DDOT":0},{"OBJECT_NAME":"METEOR-M2 2","OBJECT_ID":"2019-038A","EPOCH":"2026-04-05T06:12:02.861280","MEAN_MOTION":14.24345453,"ECCENTRICITY":6.8e-5,"INCLINATION":98.9119,"RA_OF_ASC_NODE":81.4825,"ARG_OF_PERICENTER":165.1792,"MEAN_ANOMALY":194.9406,"EPHEMERIS_TYPE":0,"CLASSIFICATION_TYPE":"U","NORAD_CAT_ID":44387,"ELEMENT_SET_NO":999,"REV_AT_EPOCH":35091,"BSTAR":0.00012998179,"MEAN_MOTION_DOT":2.55e-6,"MEAN_MOTION_DDOT":0},{"OBJECT_NAME":"ARKTIKA-M 1","OBJECT_ID":"2021-016A","EPOCH":"2026-03-27T05:55:38.244288","MEAN_MOTION":2.00616454,"ECCENTRICITY":0.7253959,"INCLINATION":63.2179,"RA_OF_ASC_NODE":69.3783,"ARG_OF_PERICENTER":269.5617,"MEAN_ANOMALY":15.0995,"EPHEMERIS_TYPE":0,"CLASSIFICATION_TYPE":"U","NORAD_CAT_ID":47719,"ELEMENT_SET_NO":999,"REV_AT_EPOCH":3714,"BSTAR":0,"MEAN_MOTION_DOT":-9.8e-7,"MEAN_MOTION_DDOT":0},{"OBJECT_NAME":"FENGYUN 3E","OBJECT_ID":"2021-062A","EPOCH":"2026-04-05T06:26:16.209888","MEAN_MOTION":14.19898931,"ECCENTRICITY":9.235e-5,"INCLINATION":98.7511,"RA_OF_ASC_NODE":99.4865,"ARG_OF_PERICENTER":342.2304,"MEAN_ANOMALY":17.884,"EPHEMERIS_TYPE":0,"CLASSIFICATION_TYPE":"U","NORAD_CAT_ID":49008,"ELEMENT_SET_NO":999,"REV_AT_EPOCH":24623,"BSTAR":0.00021427627,"MEAN_MOTION_DOT":4.11e-6,"MEAN_MOTION_DDOT":0},{"OBJECT_NAME":"GOES 18","OBJECT_ID":"2022-021A","EPOCH":"2026-04-05T03:37:38.675712","MEAN_MOTION":1.00268291,"ECCENTRICITY":7.345e-5,"INCLINATION":0.0482,"RA_OF_ASC_NODE":39.4881,"ARG_OF_PERICENTER":32.5859,"MEAN_ANOMALY":38.7967,"EPHEMERIS_TYPE":0,"CLASSIFICATION_TYPE":"U","NORAD_CAT_ID":51850,"ELEMENT_SET_NO":999,"REV_AT_EPOCH":586,"BSTAR":0,"MEAN_MOTION_DOT":9.8e-7,"MEAN_MOTION_DDOT":0},{"OBJECT_NAME":"NOAA 21 (JPSS-2)","OBJECT_ID":"2022-150A","EPOCH":"2026-04-05T07:04:20.539488","MEAN_MOTION":14.19559709,"ECCENTRICITY":0.00026304,"INCLINATION":98.7586,"RA_OF_ASC_NODE":35.2607,"ARG_OF_PERICENTER":60.0955,"MEAN_ANOMALY":300.0482,"EPHEMERIS_TYPE":0,"CLASSIFICATION_TYPE":"U","NORAD_CAT_ID":54234,"ELEMENT_SET_NO":999,"REV_AT_EPOCH":17620,"BSTAR":9.3420096e-5,"MEAN_MOTION_DOT":1.53e-6,"MEAN_MOTION_DDOT":0},{"OBJECT_NAME":"METEOSAT-12 (MTG-I1)","OBJECT_ID":"2022-170C","EPOCH":"2026-04-05T05:28:38.784288","MEAN_MOTION":1.00274811,"ECCENTRICITY":0.00015195,"INCLINATION":0.7406,"RA_OF_ASC_NODE":26.5987,"ARG_OF_PERICENTER":303.8062,"MEAN_ANOMALY":304.9865,"EPHEMERIS_TYPE":0,"CLASSIFICATION_TYPE":"U","NORAD_CAT_ID":54743,"ELEMENT_SET_NO":999,"REV_AT_EPOCH":1224,"BSTAR":0,"MEAN_MOTION_DOT":-5.0e-8,"MEAN_MOTION_DDOT":0},{"OBJECT_NAME":"TIANMU-1 03","OBJECT_ID":"2023-039A","EPOCH":"2026-04-05T07:26:00.347136","MEAN_MOTION":15.45224725,"ECCENTRICITY":0.00029721,"INCLINATION":97.5207,"RA_OF_ASC_NODE":266.5525,"ARG_OF_PERICENTER":23.8178,"MEAN_ANOMALY":336.3208,"EPHEMERIS_TYPE":0,"CLASSIFICATION_TYPE":"U","NORAD_CAT_ID":55973,"ELEMENT_SET_NO":999,"REV_AT_EPOCH":16957,"BSTAR":0.00044840826,"MEAN_MOTION_DOT":0.00021243,"MEAN_MOTION_DDOT":0},{"OBJECT_NAME":"TIANMU-1 04","OBJECT_ID":"2023-039B","EPOCH":"2026-04-05T06:15:39.258720","MEAN_MOTION":15.45749441,"ECCENTRICITY":0.00034946,"INCLINATION":97.5139,"RA_OF_ASC_NODE":265.6561,"ARG_OF_PERICENTER":15.8469,"MEAN_ANOMALY":344.2888,"EPHEMERIS_TYPE":0,"CLASSIFICATION_TYPE":"U","NORAD_CAT_ID":55974,"ELEMENT_SET_NO":999,"REV_AT_EPOCH":16957,"BSTAR":0.00047619314,"MEAN_MOTION_DOT":0.00022979,"MEAN_MOTION_DDOT":0},{"OBJECT_NAME":"TIANMU-1 05","OBJECT_ID":"2023-039C","EPOCH":"2026-04-05T06:53:47.313024","MEAN_MOTION":15.45163246,"ECCENTRICITY":0.00032566,"INCLINATION":97.5185,"RA_OF_ASC_NODE":266.171,"ARG_OF_PERICENTER":46.2956,"MEAN_ANOMALY":313.8562,"EPHEMERIS_TYPE":0,"CLASSIFICATION_TYPE":"U","NORAD_CAT_ID":55975,"ELEMENT_SET_NO":999,"REV_AT_EPOCH":16955,"BSTAR":0.00043384337,"MEAN_MOTION_DOT":0.00020506,"MEAN_MOTION_DDOT":0},{"OBJECT_NAME":"TIANMU-1 06","OBJECT_ID":"2023-039D","EPOCH":"2026-04-05T06:15:05.877216","MEAN_MOTION":15.45683546,"ECCENTRICITY":0.00034314,"INCLINATION":97.5195,"RA_OF_ASC_NODE":266.7082,"ARG_OF_PERICENTER":38.7345,"MEAN_ANOMALY":321.4149,"EPHEMERIS_TYPE":0,"CLASSIFICATION_TYPE":"U","NORAD_CAT_ID":55976,"ELEMENT_SET_NO":999,"REV_AT_EPOCH":16957,"BSTAR":0.00046457787,"MEAN_MOTION_DOT":0.00022364,"MEAN_MOTION_DDOT":0},{"OBJECT_NAME":"FENGYUN 3G","OBJECT_ID":"2023-055A","EPOCH":"2026-04-05T06:37:44.697792","MEAN_MOTION":15.53608678,"ECCENTRICITY":0.0004047,"INCLINATION":49.9947,"RA_OF_ASC_NODE":1.9773,"ARG_OF_PERICENTER":46.7794,"MEAN_ANOMALY":313.3511,"EPHEMERIS_TYPE":0,"CLASSIFICATION_TYPE":"U","NORAD_CAT_ID":56232,"ELEMENT_SET_NO":999,"REV_AT_EPOCH":16867,"BSTAR":0.00059096835,"MEAN_MOTION_DOT":0.00038164,"MEAN_MOTION_DDOT":0},{"OBJECT_NAME":"METEOR-M2 3","OBJECT_ID":"2023-091A","EPOCH":"2026-04-05T07:21:30.436128","MEAN_MOTION":14.24040655,"ECCENTRICITY":0.00044687,"INCLINATION":98.6163,"RA_OF_ASC_NODE":151.751,"ARG_OF_PERICENTER":37.49,"MEAN_ANOMALY":322.659,"EPHEMERIS_TYPE":0,"CLASSIFICATION_TYPE":"U","NORAD_CAT_ID":57166,"ELEMENT_SET_NO":999,"REV_AT_EPOCH":14414,"BSTAR":3.1281531e-5,"MEAN_MOTION_DOT":2.9e-7,"MEAN_MOTION_DDOT":0},{"OBJECT_NAME":"TIANMU-1 07","OBJECT_ID":"2023-101A","EPOCH":"2026-04-05T06:46:38.940096","MEAN_MOTION":15.29402981,"ECCENTRICITY":0.0004456,"INCLINATION":97.2666,"RA_OF_ASC_NODE":147.6332,"ARG_OF_PERICENTER":79.4136,"MEAN_ANOMALY":280.7607,"EPHEMERIS_TYPE":0,"CLASSIFICATION_TYPE":"U","NORAD_CAT_ID":57399,"ELEMENT_SET_NO":999,"REV_AT_EPOCH":15050,"BSTAR":0.00034383077,"MEAN_MOTION_DOT":9.735e-5,"MEAN_MOTION_DDOT":0},{"OBJECT_NAME":"TIANMU-1 08","OBJECT_ID":"2023-101B","EPOCH":"2026-04-04T12:43:41.079648","MEAN_MOTION":15.29475906,"ECCENTRICITY":0.0005376,"INCLINATION":97.2662,"RA_OF_ASC_NODE":146.6773,"ARG_OF_PERICENTER":60.6646,"MEAN_ANOMALY":299.5131,"EPHEMERIS_TYPE":0,"CLASSIFICATION_TYPE":"U","NORAD_CAT_ID":57400,"ELEMENT_SET_NO":999,"REV_AT_EPOCH":15038,"BSTAR":1.8611e-5,"MEAN_MOTION_DOT":4.59e-6,"MEAN_MOTION_DDOT":0},{"OBJECT_NAME":"TIANMU-1 09","OBJECT_ID":"2023-101C","EPOCH":"2026-04-05T05:36:33.962688","MEAN_MOTION":15.29423229,"ECCENTRICITY":0.00048989,"INCLINATION":97.2614,"RA_OF_ASC_NODE":146.8209,"ARG_OF_PERICENTER":77.2918,"MEAN_ANOMALY":282.887,"EPHEMERIS_TYPE":0,"CLASSIFICATION_TYPE":"U","NORAD_CAT_ID":57401,"ELEMENT_SET_NO":999,"REV_AT_EPOCH":15049,"BSTAR":0.00035480608,"MEAN_MOTION_DOT":0.00010056,"MEAN_MOTION_DDOT":0}]
