METOP-C                 
1 43689U 18087A   26095.21681589  .00000186  00000+0  10477-3 0  9992
2 43689  98.6711 156.1323 0001758  63.9960 296.1398 14.21506518384465
GEO-KOMPSAT-2A          
1 43823U 18100A   26094.98604488 -.00000343  00000+0  00000+0 0  9997
2 43823   0.0527  37.7483 0001957  23.3348 255.4434  1.00273311 26893
METEOR-M2 2             
1 44387U 19038A   26095.25836645  .00000255  00000+0  12998-3 0  9991
2 44387  98.9119  81.4825 0000680 165.1792 194.9406 14.24345453350914
ARKTIKA-M 1             
1 47719U 21016A   26086.24697042 -.00000098  00000+0  00000+0 0  9990
2 47719  63.2179  69.3783 7253959 269.5617  15.0995  2.00616454 37142
FENGYUN 3E              
1 49008U 21062A   26095.26824317  .00000411  00000+0  21428-3 0  9992
2 49008  98.7511  99.4865 0000923 342.2304  17.8840 14.19898931246235
GOES 18                 
1 51850U 22021A   26095.15114208  .00000098  00000+0  00000+0 0  9995
2 51850   0.0482  39.4881 0000734  32.5859  38.7967  1.00268291  5862
NOAA 21 (JPSS-2)        
1 54234U 22150A   26095.29468217  .00000153  00000+0  93420-4 0  9999
2 54234  98.7586  35.2607 0002630  60.0955 300.0482 14.19559709176205
METEOSAT-12 (MTG-I1)    
1 54743U 22170C   26095.22822667 -.00000005  00000+0  00000+0 0  9996
2 54743   0.7406  26.5987 0001519 303.8062 304.9865  1.00274811 12245
TIANMU-1 03             
1 55973U 23039A   26095.30972624  .00021243  00000+0  44841-3 0  9996
2 55973  97.5207 266.5525 0002972  23.8178 336.3208 15.45224725169571
TIANMU-1 04             
1 55974U 23039B   26095.26087105  .00022979  00000+0  47619-3 0  9996
2 55974  97.5139 265.6561 0003494  15.8469 344.2888 15.45749441169579
TIANMU-1 05             
1 55975U 23039C   26095.28735316  .00020506  00000+0  43384-3 0  9992
2 55975  97.5185 266.1710 0003256  46.2956 313.8562 15.45163246169550
TIANMU-1 06             
1 55976U 23039D   26095.26048469  .00022364  00000+0  46458-3 0  9996
2 55976  97.5195 266.7082 0003431  38.7345 321.4149 15.45683546169571
FENGYUN 3G              
1 56232U 23055A   26095.27621178  .00038164  00000+0  59097-3 0  9993
2 56232  49.9947   1.9773 0004047  46.7794 313.3511 15.53608678168675
METEOR-M2 3             
1 57166U 23091A   26095.30660227  .00000029  00000+0  31282-4 0  9998
2 57166  98.6163 151.7510 0004468  37.4900 322.6590 14.24040655144147
TIANMU-1 07             
1 57399U 23101A   26095.28239514  .00009735  00000+0  34383-3 0  9993
2 57399  97.2666 147.6332 0004456  79.4136 280.7607 15.29402981150508
TIANMU-1 08             
1 57400U 23101B   26094.53033657  .00000459  00000+0  18611-4 0  9994
2 57400  97.2662 146.6773 0005376  60.6646 299.5131 15.29475906150388
TIANMU-1 09             
1 57401U 23101C   26095.23372642  .00010056  00000+0  35481-3 0  9990
2 57401  97.2614 146.8209 0004898  77.2918 282.8870 15.29423229150494
